GALAXY 16               
1 29236C 06023A   21224.00000000 -.00003637  00000-0  00000-0 0  2245
2 29236   0.0000 139.4059 0002675 356.3122  85.9314  1.00273039    13
GALAXY 17               
1 31307C 07016B   21220.94685185 -.00000084  00000-0  00000-0 0  2201
2 31307   0.0061  56.9288 0002777  83.1301  67.4694  1.00270528    12
GALAXY 17           [PM]
1 31307C 07016B   21223.98076389 -.00000084  00000-0  00000-0 0  2231
2 31307   0.0110  61.9203 0003029  73.8470  86.9470  1.00272501    15
GALAXY 17               
1 31307C 07016B   21224.00000000 -.00000084  00000-0  00000-0 0  2243
2 31307   0.0110  61.8225 0003038  74.2034  93.6322  1.00272568    13
INTELSAT 11             
1 32253C 07044B   21220.94685185 -.00000172  00000-0  00000-0 0  2201
2 32253   0.0021 118.6538 0001602  44.1918  92.6997  1.00270751    14
INTELSAT 11         [PM]
1 32253C 07044B   21223.86454861 -.00000178  00000-0  00000-0 0  2239
2 32253   0.0047 118.7158 0001731  31.7196  78.3428  1.00272746    10
INTELSAT 11             
1 32253C 07044B   21224.00000000 -.00000204  00000-0  00000-0 0  2249
2 32253   0.0047 117.5300 0001767  34.0583 126.0862  1.00272905    11
HORIZONS 2              
1 32388C 07063B   21220.94685185 -.00000093  00000-0  00000-0 0  2203
2 32388   0.0000  89.1049 0002464  45.9797 248.2948  1.00270619    18
HORIZONS 2          [PM]
1 32388C 07063B   21223.70905093 -.00000075  00000-0  00000-0 0  2236
2 32388   0.0040  92.1684 0002837  40.5394 167.7763  1.00272399    16
HORIZONS 2              
1 32388C 07063B   21224.00000000 -.00000096  00000-0  00000-0 0  2248
2 32388   0.0046  91.4794 0002854  41.9642 272.0701  1.00272076    10
GALAXY 18               
1 32951C 08024A   21220.94685185  .00000115  00000-0  00000-0 0  2201
2 32951   0.0028 118.1393 0002827  33.0662  24.3264  1.00271459    18
GALAXY 18           [PM]
1 32951C 08024A   21223.56458333  .00000116  00000-0  00000-0 0  2239
2 32951   0.0049 118.6828 0003059  30.1492 251.6679  1.00269597    11
GALAXY 18               
1 32951C 08024A   21224.00000000  .00000115  00000-0  00000-0 0  2243
2 32951   0.0055 116.2227 0003061  31.0020  50.4517  1.00269740    11
INTELSAT 25             
1 33153C 08034A   21220.94685185 -.00003835  00000-0  00000-0 0  2200
2 33153   0.0194 170.5691 0002300 318.7744 137.6739  1.00270608    10
INTELSAT 25             
1 33153C 08034A   21224.00000000 -.00000130  00000-0  00000-0 0  2247
2 33153   0.0134 158.4334 0002751 325.3600 165.3537  1.00275145    13
INTELSAT 25         [PM]
1 33153C 08034A   21224.38280093 -.00000132  00000-0  00000-0 0  2242
2 33153   0.0078 134.7223 0002867 334.7720 317.8442  1.00272163    15
GALAXY 19               
1 33376C 08045A   21220.94685185 -.00000058  00000-0  00000-0 0  2203
2 33376   0.0205 208.3462 0002755 296.9317  56.2443  1.00270569    17
GALAXY 19           [PM]
1 33376C 08045A   21223.98888889 -.00000051  00000-0  00000-0 0  2232
2 33376   0.0009  85.2048 0002809  65.0728  69.3710  1.00265736    14
GALAXY 19               
1 33376C 08045A   21224.00000000 -.00000056  00000-0  00000-0 0  2243
2 33376   0.0327 259.6456 0003003 242.1905  81.8191  1.00271736    18
INTELSAT 14             
1 36097C 09064A   21220.94685185 -.00003752  00000-0  00000-0 0  2202
2 36097   0.0010 126.7736 0002127  14.7267 112.0261  1.00270740    14
INTELSAT 14         [PM]
1 36097C 09064A   21223.87259259 -.00000184  00000-0  00000-0 0  2235
2 36097   0.0031 126.1905 0002382   6.7600  96.7124  1.00273123    18
INTELSAT 14             
1 36097C 09064A   21224.00000000 -.00000182  00000-0  00000-0 0  2248
2 36097   0.0028 125.0388 0002415   8.7274 141.8894  1.00273228    15
INTELSAT 15             
1 36106C 09067A   21220.94685185 -.00000095  00000-0  00000-0 0  2203
2 36106   0.0131  92.7880 0002083  54.8221 236.0730  1.00270921    16
INTELSAT 15             
1 36106C 09067A   21224.00000000 -.00000115  00000-0  00000-0 0  2248
2 36106   0.0248 319.5755 0002310 185.7186 260.5252  1.00270162    11
INTELSAT 15         [PM]
1 36106C 09067A   21224.48858796 -.00000098  00000-0  00000-0 0  2243
2 36106   0.0015  31.0903 0002332 109.9144  81.1852  1.00271660    17
INTELSAT 16             
1 36397C 10006A   21220.94685185 -.00000155  00000-0  00000-0 0  2207
2 36397   0.0143  98.2786 0001775  52.7739  71.2776  1.00271203    18
INTELSAT 16             
1 36397C 10006A   21224.00000000 -.00000154  00000-0  00000-0 0  2248
2 36397   0.0311 275.4770 0002153 233.9278  95.0609  1.00269973    19
INTELSAT 16         [PM]
1 36397C 10006A   21224.96303241 -.00003753  00000-0  00000-0 0  2244
2 36397   0.0012  44.0779 0002214  99.6373  88.3852  1.00272305    15
INTELSAT 17             
1 37238C 10065B   21220.94685185  .00000089  00000-0  00000-0 0  2202
2 37238   0.0253 162.7240 0002514 347.3936 214.4062  1.00271336    17
INTELSAT 17         [PM]
1 37238C 10065B   21223.20052083  .00000083  00000-0  00000-0 0  2236
2 37238   0.0458 257.7656 0002721 249.9392 310.3642  1.00269979    13
INTELSAT 17             
1 37238C 10065B   21224.00000000  .00000089  00000-0  00000-0 0  2244
2 37238   0.0420 250.3676 0002830 256.9702 239.3288  1.00270283    13
INTELSAT NEW DAWN       
1 37392C 11016A   21220.94685185  .00000246  00000-0  00000-0 0  2205
2 37392   0.0208 151.6196 0002295 339.3675 200.3356  1.00260382    11
INTELSAT NEW DAWN   [PM]
1 37392C 11016A   21222.42188657  .00000244  00000-0  00000-0 0  2222
2 37392   0.0491 274.3956 0001738 223.6194   5.7539  1.00270140    17
INTELSAT NEW DAWN       
1 37392C 11016A   21224.00000000  .00000244  00000-0  00000-0 0  2245
2 37392   0.0441 270.9717 0001980 227.8420 214.6285  1.00271197    18
INTELSAT NEW DAWN   [PM]
1 37392C 11016A   21229.00196759  .00000245  00000-0  00000-0 0  2293
2 37392   0.0187 187.1228 0002182 311.1380 220.8354  1.00271210    10
INTELSAT 18             
1 37834C 11056A   21220.94685185 -.00004175  00000-0  00000-0 0  2206
2 37834   0.0457 282.9675 0001725 211.3135 344.2551  1.00267886    16
INTELSAT 18             
1 37834C 11056A   21224.00000000 -.00003832  00000-0  00000-0 0  2247
2 37834   0.0187  18.5530 0001921 114.1458   7.9658  1.00270084    10
INTELSAT 18         [PM]
1 37834C 11056A   21227.00055556  .00000143  00000-0  00000-0 0  2270
2 37834   0.0192  38.5257 0002124  97.7682   7.5182  1.00272581    17
INTELSAT 22             
1 38098C 12011A   21220.94685185  .00000017  00000-0  00000-0 0  2201
2 38098   0.0020 119.8633 0002480  24.7033 226.0534  1.00270927    17
INTELSAT 22         [PM]
1 38098C 12011A   21223.57976852  .00000033  00000-0  00000-0 0  2238
2 38098   0.0039 119.9546 0002663  19.2662 101.8423  1.00272153    11
INTELSAT 22             
1 38098C 12011A   21224.00000000  .00000032  00000-0  00000-0 0  2240
2 38098   0.0044 117.7653 0002722  22.9576 252.0393  1.00272020    11
INTELSAT 19             
1 38356C 12030A   21220.94685185  .00000032  00000-0  00000-0 0  2206
2 38356   0.0220 206.5681 0002859 295.8583 322.0928  1.00271976    13
INTELSAT 19         [PM]
1 38356C 12030A   21223.63386574 -.00003432  00000-0  00000-0 0  2236
2 38356   0.0077 185.3519 0003038 313.8572 215.2993  1.00270326    19
INTELSAT 19             
1 38356C 12030A   21224.00000000  .00000029  00000-0  00000-0 0  2244
2 38356   0.0322 260.5074 0003026 238.4437 347.7246  1.00270221    19
INTELSAT 20             
1 38740C 12043A   21221.00000000  .00000066  00000-0  00000-0 0  2210
2 38740   0.0150 138.3459 0001128  66.9830 180.8844  1.00269845    16
INTELSAT 20             
1 38740C 12043A   21224.00000000  .00000066  00000-0  00000-0 0  2246
2 38740   0.0115 142.9706 0000930  45.7381 200.4603  1.00270151    13
INTELSAT 20         [PM]
1 38740C 12043A   21224.34861111  .00000066  00000-0  00000-0 0  2241
2 38740   0.0075 127.9788 0001111  43.6852 343.3423  1.00271750    16
INTELSAT 21             
1 38749C 12045A   21220.94685185 -.00000234  00000-0  00000-0 0  2203
2 38749   0.0000 118.0410 0002000  29.5093  92.9786  1.00271031    15
INTELSAT 21         [PM]
1 38749C 12045A   21223.83805556 -.00000196  00000-0  00000-0 0  2230
2 38749   0.0028 118.3288 0002158  19.2211  66.6496  1.00272800    14
INTELSAT 21             
1 38749C 12045A   21224.00000000 -.00000225  00000-0  00000-0 0  2245
2 38749   0.0028 117.2144 0002202  21.2122 124.2329  1.00272982    14
INTELSAT 23             
1 38867C 12057A   21220.94685185 -.00000195  00000-0  00000-0 0  2203
2 38867   0.0012 190.3482 0000833 327.7321  87.4339  1.00267908    11
INTELSAT 23         [PM]
1 38867C 12057A   21223.54146991 -.00000282  00000-0  00000-0 0  2239
2 38867   0.0654 271.1092 0001768 232.4913 318.5403  1.00271947    13
INTELSAT 23             
1 38867C 12057A   21224.00000000 -.00000195  00000-0  00000-0 0  2245
2 38867   0.0644 271.4170 0001843 230.2781 125.9692  1.00272125    14
INTELSAT 30             
1 40271C 14062A   21221.00000000 -.00003428  00000-0  00000-0 0  2211
2 40271   0.0000 142.5366 0001750 280.4097 159.7154  1.00270442    19
INTELSAT 30         [PM]
1 40271C 14062A   21223.34487269 -.00003606  00000-0  00000-0 0  2236
2 40271   0.0356 279.1435 0002005 134.7371 295.2385  1.00272033    17
INTELSAT 30             
1 40271C 14062A   21224.00000000 -.00003776  00000-0  00000-0 0  2243
2 40271   0.0365 280.5423 0002009 149.9728 155.0960  1.00270309    14
INTELSAT 34             
1 40874C 15039A   21221.00000000 -.00000199  00000-0  00000-0 0  2217
2 40874   0.0111 295.3588 0000838  68.4639 258.4052  1.00269801    17
INTELSAT 34             
1 40874C 15039A   21224.00000000 -.00003887  00000-0  00000-0 0  2240
2 40874   0.0041 209.4580 0001366 152.0122 263.7088  1.00262054    12
INTELSAT 34         [PM]
1 40874C 15039A   21224.13140046 -.00000187  00000-0  00000-0 0  2249
2 40874   0.0460 285.1104 0001144  90.8971 296.5949  1.00273168    13
